{"type": "FeatureCollection", "features": [ {"type": "Feature", "properties": {"norad_id": 37834, "name": "INTELSAT 18 (IS-18)", "group": "intelsat", "lat": -0.03588184034358898, "lon": -110.76903235489199, "alt_km": 35780.25352524145, "timestamp": "2025-12-19T22:41:52.047110+00:00", "meta": {"OBJECT_NAME": "INTELSAT 18 (IS-18)", "OBJECT_ID": "2011-056A", "EPOCH": "2025-12-19T15:49:55.310016", "MEAN_MOTION": 1.00272228, "ECCENTRICITY": 0.0001651, "INCLINATION": 0.0351, "RA_OF_ASC_NODE": 279.4448, "ARG_OF_PERICENTER": 5.4986, "MEAN_ANOMALY": 221.0401, "EPHEMERIS_TYPE": 0, "CLASSIFICATION_TYPE": "U", "NORAD_CAT_ID": 37834, "ELEMENT_SET_NO": 999, "REV_AT_EPOCH": 5201, "BSTAR": 0, "MEAN_MOTION_DOT": 7.7e-07, "MEAN_MOTION_DDOT": 0}, "tle": {"line1": "1 37834U 11056A   25353.65966794  .00000077  00000+0  00000+0 0  9990", "line2": "2 37834   0.0351 279.4448 0001651   5.4986 221.0401  1.00272228 52011"}}, "geometry": {"type": "Point", "coordinates": [-110.76903235489199, -0.03588184034358898]}}, {"type": "Feature", "properties": {"norad_id": 38098, "name": "INTELSAT 22 (IS-22)", "group": "intelsat", "lat": 0.02712360721222109, "lon": 141.3249746464994, "alt_km": 35791.962182834344, "timestamp": "2025-12-19T22:41:52.047122+00:00", "meta": {"OBJECT_NAME": "INTELSAT 22 (IS-22)", "OBJECT_ID": "2012-011A", "EPOCH": "2025-12-19T17:04:28.858368", "MEAN_MOTION": 1.00270549, "ECCENTRICITY": 0.0001807, "INCLINATION": 0.0143, "RA_OF_ASC_NODE": 47.0579, "ARG_OF_PERICENTER": 230.7098, "MEAN_ANOMALY": 139.0054, "EPHEMERIS_TYPE": 0, "CLASSIFICATION_TYPE": "U", "NORAD_CAT_ID": 38098, "ELEMENT_SET_NO": 999, "REV_AT_EPOCH": 538, "BSTAR": 0, "MEAN_MOTION_DOT": -3.4e-07, "MEAN_MOTION_DDOT": 0}, "tle": {"line1": "1 38098U 12011A   25353.71144512 -.00000034  00000+0  00000+0 0  9992", "line2": "2 38098   0.0143  47.0579 0001807 230.7098 139.0054  1.00270549  5381"}}, "geometry": {"type": "Point", "coordinates": [141.3249746464994, 0.02712360721222109]}}, {"type": "Feature", "properties": {"norad_id": 38356, "name": "INTELSAT 19 (IS-19)", "group": "intelsat", "lat": -0.03479937308758088, "lon": -124.77199676490491, "alt_km": 35776.14881704708, "timestamp": "2025-12-19T22:41:52.047135+00:00", "meta": {"OBJECT_NAME": "INTELSAT 19 (IS-19)", "OBJECT_ID": "2012-030A", "EPOCH": "2025-12-19T17:28:37.236864", "MEAN_MOTION": 1.00271271, "ECCENTRICITY": 0.0002741, "INCLINATION": 0.0115, "RA_OF_ASC_NODE": 352.2924, "ARG_OF_PERICENTER": 272.7431, "MEAN_ANOMALY": 251.6929, "EPHEMERIS_TYPE": 0, "CLASSIFICATION_TYPE": "U", "NORAD_CAT_ID": 38356, "ELEMENT_SET_NO": 999, "REV_AT_EPOCH": 4865, "BSTAR": 0, "MEAN_MOTION_DOT": -3.2e-07, "MEAN_MOTION_DDOT": 0}, "tle": {"line1": "1 38356U 12030A   25353.72820876 -.00000032  00000+0  00000+0 0  9993", "line2": "2 38356   0.0115 352.2924 0002741 272.7431 251.6929  1.00271271 48659"}}, "geometry": {"type": "Point", "coordinates": [-124.77199676490491, -0.03479937308758088]}}, {"type": "Feature", "properties": {"norad_id": 38740, "name": "INTELSAT 20 (IS-20)", "group": "intelsat", "lat": 0.0053332623727652545, "lon": 137.71182512224266, "alt_km": 35777.36251304088, "timestamp": "2025-12-19T22:41:52.047147+00:00", "meta": {"OBJECT_NAME": "INTELSAT 20 (IS-20)", "OBJECT_ID": "2012-043A", "EPOCH": "2025-12-19T10:10:00.721344", "MEAN_MOTION": 1.00270144, "ECCENTRICITY": 0.0003081, "INCLINATION": 0.0091, "RA_OF_ASC_NODE": 90.4034, "ARG_OF_PERICENTER": 92.0729, "MEAN_ANOMALY": 126.795, "EPHEMERIS_TYPE": 0, "CLASSIFICATION_TYPE": "U", "NORAD_CAT_ID": 38740, "ELEMENT_SET_NO": 999, "REV_AT_EPOCH": 4894, "BSTAR": 0, "MEAN_MOTION_DOT": 0, "MEAN_MOTION_DDOT": 0}, "tle": {"line1": "1 38740U 12043A   25353.42361946  .00000000  00000+0  00000+0 0  9993", "line2": "2 38740   0.0091  90.4034 0003081  92.0729 126.7950  1.00270144 48949"}}, "geometry": {"type": "Point", "coordinates": [137.71182512224266, 0.0053332623727652545]}}, {"type": "Feature", "properties": {"norad_id": 38749, "name": "INTELSAT 21 (IS-21)", "group": "intelsat", "lat": 0.03161724770759035, "lon": 11.260654925171293, "alt_km": 35787.9384121506, "timestamp": "2025-12-19T22:41:52.047159+00:00", "meta": {"OBJECT_NAME": "INTELSAT 21 (IS-21)", "OBJECT_ID": "2012-045A", "EPOCH": "2025-12-19T11:16:36.486336", "MEAN_MOTION": 1.00273688, "ECCENTRICITY": 0.0001541, "INCLINATION": 0.0278, "RA_OF_ASC_NODE": 286.5242, "ARG_OF_PERICENTER": 333.6711, "MEAN_ANOMALY": 299.2721, "EPHEMERIS_TYPE": 0, "CLASSIFICATION_TYPE": "U", "NORAD_CAT_ID": 38749, "ELEMENT_SET_NO": 999, "REV_AT_EPOCH": 4872, "BSTAR": 0, "MEAN_MOTION_DOT": -2.6e-06, "MEAN_MOTION_DDOT": 0}, "tle": {"line1": "1 38749U 12045A   25353.46986674 -.00000260  00000+0  00000+0 0  9998", "line2": "2 38749   0.0278 286.5242 0001541 333.6711 299.2721  1.00273688 48722"}}, "geometry": {"type": "Point", "coordinates": [11.260654925171293, 0.03161724770759035]}}, {"type": "Feature", "properties": {"norad_id": 38867, "name": "INTELSAT 23 (IS-23)", "group": "intelsat", "lat": -0.003509908082395083, "lon": 16.28395427829468, "alt_km": 35786.21744145166, "timestamp": "2025-12-19T22:41:52.047171+00:00", "meta": {"OBJECT_NAME": "INTELSAT 23 (IS-23)", "OBJECT_ID": "2012-057A", "EPOCH": "2025-12-19T18:08:46.360896", "MEAN_MOTION": 1.00270282, "ECCENTRICITY": 5.78e-05, "INCLINATION": 0.0148, "RA_OF_ASC_NODE": 49.4556, "ARG_OF_PERICENTER": 244.3667, "MEAN_ANOMALY": 14.0058, "EPHEMERIS_TYPE": 0, "CLASSIFICATION_TYPE": "U", "NORAD_CAT_ID": 38867, "ELEMENT_SET_NO": 999, "REV_AT_EPOCH": 4815, "BSTAR": 0, "MEAN_MOTION_DOT": -2.6e-06, "MEAN_MOTION_DDOT": 0}, "tle": {"line1": "1 38867U 12057A   25353.75609214 -.00000260  00000+0  00000+0 0  9996", "line2": "2 38867   0.0148  49.4556 0000578 244.3667  14.0058  1.00270282 48150"}}, "geometry": {"type": "Point", "coordinates": [16.28395427829468, -0.003509908082395083]}}, {"type": "Feature", "properties": {"norad_id": 39360, "name": "FM-6", "group": "intelsat", "lat": -0.020140411398311974, "lon": -46.897450700307644, "alt_km": 35796.85849499298, "timestamp": "2025-12-19T22:41:52.047183+00:00", "meta": {"OBJECT_NAME": "FM-6", "OBJECT_ID": "2013-058A", "EPOCH": "2025-12-19T11:11:49.081920", "MEAN_MOTION": 1.00267591, "ECCENTRICITY": 0.0003051, "INCLINATION": 0.0115, "RA_OF_ASC_NODE": 64.9452, "ARG_OF_PERICENTER": 109.4337, "MEAN_ANOMALY": 325.7334, "EPHEMERIS_TYPE": 0, "CLASSIFICATION_TYPE": "U", "NORAD_CAT_ID": 39360, "ELEMENT_SET_NO": 999, "REV_AT_EPOCH": 4427, "BSTAR": 0, "MEAN_MOTION_DOT": 8e-08, "MEAN_MOTION_DDOT": 0}, "tle": {"line1": "1 39360U 13058A   25353.46654030  .00000008  00000+0  00000+0 0  9990", "line2": "2 39360   0.0115  64.9452 0003051 109.4337 325.7334  1.00267591 44271"}}, "geometry": {"type": "Point", "coordinates": [-46.897450700307644, -0.020140411398311974]}}, {"type": "Feature", "properties": {"norad_id": 40271, "name": "INTELSAT 30 (IS-30)", "group": "intelsat", "lat": -0.02291767216140277, "lon": -25.8284172689682, "alt_km": 35790.24353946387, "timestamp": "2025-12-19T22:41:52.047195+00:00", "meta": {"OBJECT_NAME": "INTELSAT 30 (IS-30)", "OBJECT_ID": "2014-062A", "EPOCH": "2025-12-19T11:39:10.878048", "MEAN_MOTION": 1.00269542, "ECCENTRICITY": 0.000169, "INCLINATION": 0.0142, "RA_OF_ASC_NODE": 22.1087, "ARG_OF_PERICENTER": 71.484, "MEAN_ANOMALY": 74.4847, "EPHEMERIS_TYPE": 0, "CLASSIFICATION_TYPE": "U", "NORAD_CAT_ID": 40271, "ELEMENT_SET_NO": 999, "REV_AT_EPOCH": 499, "BSTAR": 0, "MEAN_MOTION_DOT": -1.26e-06, "MEAN_MOTION_DDOT": 0}, "tle": {"line1": "1 40271U 14062A   25353.48554257 -.00000126  00000+0  00000+0 0  9993", "line2": "2 40271   0.0142  22.1087 0001690  71.4840  74.4847  1.00269542  4998"}}, "geometry": {"type": "Point", "coordinates": [-25.8284172689682, -0.02291767216140277]}}, {"type": "Feature", "properties": {"norad_id": 40333, "name": "DIRECTV 14", "group": "intelsat", "lat": -0.010177758890422143, "lon": -29.97314283384473, "alt_km": 35788.25877641818, "timestamp": "2025-12-19T22:41:52.047206+00:00", "meta": {"OBJECT_NAME": "DIRECTV 14", "OBJECT_ID": "2014-078B", "EPOCH": "2025-12-19T12:16:55.703712", "MEAN_MOTION": 1.00270775, "ECCENTRICITY": 4.5e-05, "INCLINATION": 0.0176, "RA_OF_ASC_NODE": 337.2584, "ARG_OF_PERICENTER": 166.3737, "MEAN_ANOMALY": 29.7448, "EPHEMERIS_TYPE": 0, "CLASSIFICATION_TYPE": "U", "NORAD_CAT_ID": 40333, "ELEMENT_SET_NO": 999, "REV_AT_EPOCH": 4024, "BSTAR": 0, "MEAN_MOTION_DOT": -1.01e-06, "MEAN_MOTION_DDOT": 0}, "tle": {"line1": "1 40333U 14078B   25353.51175583 -.00000101  00000+0  00000+0 0  9997", "line2": "2 40333   0.0176 337.2584 0000450 166.3737  29.7448  1.00270775 40246"}}, "geometry": {"type": "Point", "coordinates": [-29.97314283384473, -0.010177758890422143]}}, {"type": "Feature", "properties": {"norad_id": 40663, "name": "DIRECTV 15", "group": "intelsat", "lat": -0.031972145918168195, "lon": -33.63807720649814, "alt_km": 35787.02736083844, "timestamp": "2025-12-19T22:41:52.047219+00:00", "meta": {"OBJECT_NAME": "DIRECTV 15", "OBJECT_ID": "2015-026A", "EPOCH": "2025-12-19T16:12:00.693792", "MEAN_MOTION": 1.00270099, "ECCENTRICITY": 1.75e-05, "INCLINATION": 0.0258, "RA_OF_ASC_NODE": 9.3201, "ARG_OF_PERICENTER": 85.776, "MEAN_ANOMALY": 133.5485, "EPHEMERIS_TYPE": 0, "CLASSIFICATION_TYPE": "U", "NORAD_CAT_ID": 40663, "ELEMENT_SET_NO": 999, "REV_AT_EPOCH": 3866, "BSTAR": 0, "MEAN_MOTION_DOT": 0, "MEAN_MOTION_DDOT": 0}, "tle": {"line1": "1 40663U 15026A   25353.67500803  .00000000  00000+0  00000+0 0  9998", "line2": "2 40663   0.0258   9.3201 0000175  85.7760 133.5485  1.00270099 38667"}}, "geometry": {"type": "Point", "coordinates": [-33.63807720649814, -0.031972145918168195]}}]}